$$SOE
2459580.500000000, A.D. 2022-Jan-01 00:00:00.0000, -4.608955148985810E+08, 1.490828417031048E+04, -8.687335792311043E+06,
2459587.500000000, A.D. 2022-Jan-08 00:00:00.0000, -4.610216202877346E+08, -1.034538980129530E+07, -1.034440659664378E+07,
2459594.500000000, A.D. 2022-Jan-15 00:00:00.0000, -4.609197257272263E+08, -2.070056530368255E+07, -1.199635938768465E+07,
2459601.500000000, A.D. 2022-Jan-22 00:00:00.0000, -4.605903017535755E+08, -3.104551611135928E+07, -1.364238840256858E+07,
2459608.500000000, A.D. 2022-Jan-29 00:00:00.0000, -4.600339440947275E+08, -4.137516267384179E+07, -1.528169413974236E+07,
2459615.500000000, A.D. 2022-Feb-05 00:00:00.0000, -4.592513745464512E+08, -5.168445204602542E+07, -1.691348372405165E+07,
2459622.500000000, A.D. 2022-Feb-12 00:00:00.0000, -4.582434395740629E+08, -6.196836293196456E+07, -1.853697154430973E+07,
2459629.500000000, A.D. 2022-Feb-19 00:00:00.0000, -4.570111079669021E+08, -7.222190935406879E+07, -2.015137984767174E+07,
2459636.500000000, A.D. 2022-Feb-26 00:00:00.0000, -4.555554688593090E+08, -8.244014366707276E+07, -2.175593922920231E+07,
2459643.500000000, A.D. 2022-Mar-05 00:00:00.0000, -4.538777299622804E+08, -9.261815953050271E+07, -2.334988908144135E+07,
2459650.500000000, A.D. 2022-Mar-12 00:00:00.0000, -4.519792157873916E+08, -1.027510949022219E+08, -2.493247802942580E+07,
2459657.500000000, A.D. 2022-Mar-19 00:00:00.0000, -4.498613657952152E+08, -1.128341350226446E+08, -2.650296435514069E+07,
2459664.500000000, A.D. 2022-Mar-26 00:00:00.0000, -4.475257324500059E+08, -1.228625153939884E+08, -2.806061641387901E+07,
2459671.500000000, A.D. 2022-Apr-02 00:00:00.0000, -4.449739791181765E+08, -1.328315248088336E+08, -2.960471305345307E+07,
2459678.500000000, A.D. 2022-Apr-09 00:00:00.0000, -4.422078775441664E+08, -1.427365084210241E+08, -3.113454406101451E+07,
2459685.500000000, A.D. 2022-Apr-16 00:00:00.0000, -4.392293045515656E+08, -1.525728702023020E+08, -3.264941061683672E+07,
2459692.500000000, A.D. 2022-Apr-23 00:00:00.0000, -4.360402392422779E+08, -1.623360736982754E+08, -3.414862554992708E+07,
2459699.500000000, A.D. 2022-Apr-30 00:00:00.0000, -4.326427625678992E+08, -1.720216433281874E+08, -3.563151340736176E+07,
2459706.500000000, A.D. 2022-May-07 00:00:00.0000, -4.290390562162569E+08, -1.816251682019416E+08, -3.709741077974501E+07,
2459713.500000000, A.D. 2022-May-14 00:00:00.0000, -4.252313994292681E+08, -1.911423054150172E+08, -3.854566676197506E+07,
2459720.500000000, A.D. 2022-May-21 00:00:00.0000, -4.212221657870059E+08, -2.005687820611311E+08, -3.997564330077976E+07,
2459727.500000000, A.D. 2022-May-28 00:00:00.0000, -4.170138204403943E+08, -2.099003969211222E+08, -4.138671546338719E+07,
2459734.500000000, A.D. 2022-Jun-04 00:00:00.0000, -4.126089175199565E+08, -2.191330221412559E+08, -4.277827167851563E+07,
2459741.500000000, A.D. 2022-Jun-11 00:00:00.0000, -4.080100975809352E+08, -2.282626048989235E+08, -4.414971396302155E+07,
2459748.500000000, A.D. 2022-Jun-18 00:00:00.0000, -4.032200850507436E+08, -2.372851690422996E+08, -4.550045813680437E+07,
2459755.500000000, A.D. 2022-Jun-25 00:00:00.0000, -3.982416856534632E+08, -2.461968167370348E+08, -4.682993403142582E+07,
2459762.500000000, A.D. 2022-Jul-02 00:00:00.0000, -3.930777836812194E+08, -2.549937301858884E+08, -4.813758571013464E+07,
2459769.500000000, A.D. 2022-Jul-09 00:00:00.0000, -3.877313387259046E+08, -2.636721732447304E+08, -4.942287172064409E+07,
2459776.500000000, A.D. 2022-Jul-16 00:00:00.0000, -3.822053819298766E+08, -2.722284918525864E+08, -5.068526528707056E+07,
2459783.500000000, A.D. 2022-Jul-23 00:00:00.0000, -3.765030139569512E+08, -2.806591131988193E+08, -5.192425423295797E+07,
2459790.500000000, A.D. 2022-Jul-30 00:00:00.0000, -3.706274046028782E+08, -2.889605469832804E+08, -5.313934091734140E+07,
2459797.500000000, A.D. 2022-Aug-06 00:00:00.0000, -3.645817904510521E+08, -2.971293881236058E+08, -5.433004246133927E+07,
2459804.500000000, A.D. 2022-Aug-13 00:00:00.0000, -3.583694714007966E+08, -3.051623181563851E+08, -5.549589096473512E+07,
2459811.500000000, A.D. 2022-Aug-20 00:00:00.0000, -3.519938076403628E+08, -3.130561058363301E+08, -5.663643360955389E+07,
2459818.500000000, A.D. 2022-Aug-27 00:00:00.0000, -3.454582169987389E+08, -3.208076076614514E+08, -5.775123271618669E+07,
2459825.500000000, A.D. 2022-Sep-03 00:00:00.0000, -3.387661724308743E+08, -3.284137684370506E+08, -5.883986578405157E+07,
2459832.500000000, A.D. 2022-Sep-10 00:00:00.0000, -3.319211995492165E+08, -3.358716218571501E+08, -5.990192552349956E+07,
2459839.500000000, A.D. 2022-Sep-17 00:00:00.0000, -3.249268741752480E+08, -3.431782911074780E+08, -6.093701988226460E+07,
2459846.500000000, A.D. 2022-Sep-24 00:00:00.0000, -3.177868198534402E+08, -3.503309895431281E+08, -6.194477207663713E+07,
2459853.500000000, A.D. 2022-Oct-01 00:00:00.0000, -3.105047050902451E+08, -3.573270214654821E+08, -6.292482065175343E+07,
2459860.500000000, A.D. 2022-Oct-08 00:00:00.0000, -3.030842399132993E+08, -3.641637824786163E+08, -6.387681956632657E+07,
2459867.500000000, A.D. 2022-Oct-15 00:00:00.0000, -2.955291726848617E+08, -3.708387582280508E+08, -6.480043811897984E+07,
2459874.500000000, A.D. 2022-Oct-22 00:00:00.0000, -2.878432893527555E+08, -3.773495232077206E+08, -6.569536065432288E+07,
2459881.500000000, A.D. 2022-Oct-29 00:00:00.0000, -2.800304126429833E+08, -3.836937422313825E+08, -6.656128649068426E+07,
2459888.500000000, A.D. 2022-Nov-05 00:00:00.0000, -2.720943990974250E+08, -3.898691718298119E+08, -6.739793003883748E+07,
2459895.500000000, A.D. 2022-Nov-12 00:00:00.0000, -2.640391359233994E+08, -3.958736603075994E+08, -6.820502082818076E+07,
2459902.500000000, A.D. 2022-Nov-19 00:00:00.0000, -2.558685383748769E+08, -4.017051474142537E+08, -6.898230345228186E+07,
2459909.500000000, A.D. 2022-Nov-26 00:00:00.0000, -2.475865474026250E+08, -4.073616640284861E+08, -6.972953749038139E+07,
2459916.500000000, A.D. 2022-Dec-03 00:00:00.0000, -2.391971274069242E+08, -4.128413318703014E+08, -7.044649742156470E+07,
2459923.500000000, A.D. 2022-Dec-10 00:00:00.0000, -2.307042640480767E+08, -4.181423632263308E+08, -7.113297253521681E+07,
2459930.500000000, A.D. 2022-Dec-17 00:00:00.0000, -2.221119620918110E+08, -4.232630607174248E+08, -7.178876684309995E+07,
2459937.500000000, A.D. 2022-Dec-24 00:00:00.0000, -2.134242431823285E+08, -4.282018171775409E+08, -7.241369900924560E+07,
2459944.500000000, A.D. 2022-Dec-31 00:00:00.0000, -2.046451431871340E+08, -4.329571155387914E+08, -7.300760232213667E+07,
2459951.500000000, A.D. 2023-Jan-07 00:00:00.0000, -1.957787089921273E+08, -4.375275277620635E+08, -7.357032464199215E+07,
2459958.500000000, A.D. 2023-Jan-14 00:00:00.0000, -1.868289967144177E+08, -4.419117123176354E+08, -7.410172810213244E+07,
2459965.500000000, A.D. 2023-Jan-21 00:00:00.0000, -1.778000719771833E+08, -4.461084133898125E+08, -7.460168876459530E+07,
2459972.500000000, A.D. 2023-Jan-28 00:00:00.0000, -1.686960085783275E+08, -4.501164620037452E+08, -7.507009658279958E+07,
2459979.500000000, A.D. 2023-Feb-04 00:00:00.0000, -1.595208857619830E+08, -4.539347760495795E+08, -7.550685540513515E+07,
2459986.500000000, A.D. 2023-Feb-11 00:00:00.0000, -1.502787858885298E+08, -4.575623593995261E+08, -7.591188287082347E+07,
2459993.500000000, A.D. 2023-Feb-18 00:00:00.0000, -1.409737925663922E+08, -4.609983009424807E+08, -7.628511025958377E+07,
2460000.500000000, A.D. 2023-Feb-25 00:00:00.0000, -1.316099889824520E+08, -4.642417736993139E+08, -7.662648233246320E+07,
2460007.500000000, A.D. 2023-Mar-04 00:00:00.0000, -1.221914563282064E+08, -4.672920340014930E+08, -7.693595717174810E+07,
2460014.500000000, A.D. 2023-Mar-11 00:00:00.0000, -1.127222722923011E+08, -4.701484207343483E+08, -7.721350602271304E+07,
2460021.500000000, A.D. 2023-Mar-18 00:00:00.0000, -1.032065095718182E+08, -4.728103546965057E+08, -7.745911314578500E+07,
2460028.500000000, A.D. 2023-Mar-25 00:00:00.0000, -9.364823419865255E+07, -4.752773381246853E+08, -7.767277570179847E+07,
2460035.500000000, A.D. 2023-Apr-01 00:00:00.0000, -8.405150325616315E+07, -4.775489539922499E+08, -7.785450367722973E+07,
2460042.500000000, A.D. 2023-Apr-08 00:00:00.0000, -7.442036260118476E+07, -4.796248638579251E+08, -7.800431969286126E+07,
2460049.500000000, A.D. 2023-Apr-15 00:00:00.0000, -6.475884692777248E+07, -4.815048053715842E+08, -7.812225857180619E+07,
2460056.500000000, A.D. 2023-Apr-22 00:00:00.0000, -5.507098036220369E+07, -4.831885924900120E+08, -7.820836708230957E+07,
2460063.500000000, A.D. 2023-Apr-29 00:00:00.0000, -4.536077485310679E+07, -4.846761161519656E+08, -7.826270392251164E+07,
2460070.500000000, A.D. 2023-May-06 00:00:00.0000, -3.563222811647903E+07, -4.859673436336282E+08, -7.828533964062175E+07,
2460077.500000000, A.D. 2023-May-13 00:00:00.0000, -2.588932211198110E+07, -4.870623174795303E+08, -7.827635647429466E+07,
2460084.500000000, A.D. 2023-May-20 00:00:00.0000, -1.613602181584263E+07, -4.879611545012203E+08, -7.823584817117748E+07,
2460091.500000000, A.D. 2023-May-27 00:00:00.0000, -6.376274096265202E+06, -4.886640448741183E+08, -7.816391981116202E+07,
2460098.500000000, A.D. 2023-Jun-03 00:00:00.0000, 3.385993367087000E+06, -4.891712513074851E+08, -7.806068763391513E+07,
2460105.500000000, A.D. 2023-Jun-10 00:00:00.0000, 1.314687314429493E+07, -4.894831083023530E+08, -7.792627887547722E+07,
2460112.500000000, A.D. 2023-Jun-17 00:00:00.0000, 2.290247918707732E+07, -4.896000215589265E+08, -7.776083162754226E+07,
2460119.500000000, A.D. 2023-Jun-24 00:00:00.0000, 3.264894835202641E+07, -4.895224674793699E+08, -7.756449474470410E+07,
2460126.500000000, A.D. 2023-Jul-01 00:00:00.0000, 4.238244256867960E+07, -4.892509919392006E+08, -7.733742775553679E+07,
2460133.500000000, A.D. 2023-Jul-08 00:00:00.0000, 5.209914997855003E+07, -4.887862075057546E+08, -7.707980055683091E+07,
2460140.500000000, A.D. 2023-Jul-15 00:00:00.0000, 6.179528376879600E+07, -4.881287919328277E+08, -7.679179300491071E+07,
$$EOE